ONEWEB-0446             
1 51640U 22012U   25065.55738021  .00000370  00000+0  10242-2 0  9992
2 51640  87.8867 129.5024 0001778  96.0569 264.0761 13.10369813148085
ONEWEB-0448             
1 51641U 22012V   25065.56235624  .00000210  00000+0  56397-3 0  9990
2 51641  87.8867 129.5015 0001987 105.3921 254.7426 13.10370091148055
ONEWEB-0449             
1 51642U 22012W   25065.56733270 -.00000079  00000+0 -26241-3 0  9991
2 51642  87.8861 129.4811 0001794 109.4064 250.7257 13.10369988148064
ONEWEB-0451             
1 51643U 22012X   25065.59391834 -.00000008  00000+0 -53157-4 0  9990
2 51643  87.9011  98.9901 0001805 100.5709 259.5626 13.17647291153385
ONEWEB-0452             
1 51644U 22012Y   25065.59222930  .00000005  00000+0 -20380-4 0  9999
2 51644  87.9019  99.0465 0001968 106.2856 253.8492 13.17646844153399
ONEWEB-0456             
1 51646U 22012AA  25065.57728298 -.00000526  00000+0 -15435-2 0  9999
2 51646  87.8858 129.4418 0002119  98.9218 261.2149 13.10370638148108
ONEWEB-0457             
1 51647U 22012AB  25065.55406286  .00000528  00000+0  14761-2 0  9999
2 51647  87.8868 129.4919 0001574 108.2705 251.8593 13.10370726148102
ONEWEB-0458             
1 51648U 22012AC  25065.57562482 -.00000475  00000+0 -13960-2 0  9996
2 51648  87.8853 129.4844 0002027 106.1300 254.0051 13.10370140148065
